ONEWEB-0564             
1 55801U 23029F   24200.65703808  .00000031  00000+0  43330-4 0  9990
2 55801  87.9191  53.4381 0001991  96.2144 263.9216 13.20771722 68944
ONEWEB-0638             
1 55802U 23029G   24200.70792582  .00000224  00000+0  56952-3 0  9991
2 55802  87.8942  68.7103 0002408  72.6438 287.4955 13.14502965 67637
ONEWEB-0639             
1 55803U 23029H   24200.68343275  .00000040  00000+0  68819-4 0  9992
2 55803  87.9136  83.9668 0002117  36.1727 323.9548 13.19726452 66774
ONEWEB-0640             
1 55804U 23029J   24200.71743657  .00000134  00000+0  32709-3 0  9997
2 55804  87.8941  68.7036 0002532  66.7136 293.4260 13.14503332 67657
ONEWEB-0641             
1 55805U 23029K   24200.75450649  .00000022  00000+0  23624-4 0  9991
2 55805  87.9134  83.9338 0001799  68.7588 291.3736 13.19724779 66798
ONEWEB-0642             
1 55806U 23029L   24200.74977090 -.00000187  00000+0 -49978-3 0  9998
2 55806  87.9139  83.9587 0001685  41.2360 318.8900 13.19725163 66783
ONEWEB-0643             
1 55807U 23029M   24200.68730600  .00000116  00000+0  27891-3 0  9996
2 55807  87.8941  68.6872 0001000  52.0289 308.0931 13.14502126 67628
ONEWEB-0644             
1 55808U 23029N   24200.74502491  .00000058  00000+0  11179-3 0  9996
2 55808  87.9141  83.9564 0001642  57.0000 303.1290 13.19724749 66780
